{
  "norad_id": 67837,
  "name": "STARLINK-36649",
  "history": [
    {
      "epoch": "2026-03-28T22:00:01.999584Z",
      "apogee_km": 484.70553728322557,
      "perigee_km": 481.4234129455899,
      "latitude_deg": -42.58271971879473,
      "longitude_deg": -99.0333937881014,
      "height_km": 494.5642987472344,
      "semi_major_axis_km": 6861.201475114408,
      "eccentricity": 0.00023918,
      "inclination_deg": 43.0014,
      "raan_deg": 158.7799,
      "arg_perigee_deg": 272.3969,
      "mean_anomaly_deg": 349.1479,
      "mean_motion_rev_day": 15.27574864
    },
    {
      "epoch": "2026-03-29T04:00:01.999584Z",
      "apogee_km": 484.1469586307485,
      "perigee_km": 482.0707456358941,
      "latitude_deg": -12.260397794551453,
      "longitude_deg": 104.18366984439393,
      "height_km": 484.95821825389754,
      "semi_major_axis_km": 6861.245852133321,
      "eccentricity": 0.0001513,
      "inclination_deg": 43.001,
      "raan_deg": 157.369,
      "arg_perigee_deg": 270.065,
      "mean_anomaly_deg": 287.9057,
      "mean_motion_rev_day": 15.27560044
    },
    {
      "epoch": "2026-03-30T04:00:01.999584Z",
      "apogee_km": 484.2517578438319,
      "perigee_km": 481.9710788695693,
      "latitude_deg": -34.733452409622444,
      "longitude_deg": -143.52434347518934,
      "height_km": 492.09670426938055,
      "semi_major_axis_km": 6861.2484183567,
      "eccentricity": 0.0001662,
      "inclination_deg": 43.0013,
      "raan_deg": 151.721,
      "arg_perigee_deg": 266.424,
      "mean_anomaly_deg": 37.2891,
      "mean_motion_rev_day": 15.27559187
    },
    {
      "epoch": "2026-03-30T06:00:02.000160Z",
      "apogee_km": 484.12166553640054,
      "perigee_km": 482.02487967709203,
      "latitude_deg": 27.55654034808561,
      "longitude_deg": -92.58934998842513,
      "height_km": 484.0154609639118,
      "semi_major_axis_km": 6861.210272606746,
      "eccentricity": 0.0001528,
      "inclination_deg": 43.0012,
      "raan_deg": 151.2514,
      "arg_perigee_deg": 267.665,
      "mean_anomaly_deg": 134.8558,
      "mean_motion_rev_day": 15.27571926
    },
    {
      "epoch": "2026-03-30T14:00:03.000384Z",
      "apogee_km": 484.3584375006085,
      "perigee_km": 482.0180394617619,
      "latitude_deg": 41.970129442397095,
      "longitude_deg": -175.04352789144764,
      "height_km": 487.190938804083,
      "semi_major_axis_km": 6861.325238481185,
      "eccentricity": 0.00017055,
      "inclination_deg": 43.0015,
      "raan_deg": 149.37,
      "arg_perigee_deg": 276.0386,
      "mean_anomaly_deg": 161.7996,
      "mean_motion_rev_day": 15.27533533
    },
    {
      "epoch": "2026-03-30T22:00:00.999936Z",
      "apogee_km": 484.1796813712008,
      "perigee_km": 481.9089048104388,
      "latitude_deg": 39.05861149884464,
      "longitude_deg": 109.25660612168373,
      "height_km": 486.39222978060945,
      "semi_major_axis_km": 6861.18129309082,
      "eccentricity": 0.00016548,
      "inclination_deg": 43.0016,
      "raan_deg": 147.485,
      "arg_perigee_deg": 274.7542,
      "mean_anomaly_deg": 198.1827,
      "mean_motion_rev_day": 15.27581604
    }
  ]
}